     3.04           N: GNSS NAV DATA    E: GALILEO          RINEX VERSION / TYPE
cnvtToRINEX 3.14.0  convertToRINEX OPR  20250615 162114 UTC PGM / RUN BY / DATE 
----------------------------------------------------------- COMMENT             
GAL    0.0000D+00  0.0000D+00  0.0000D+00                   IONOSPHERIC CORR    
GAUT  0.0000000000D+00 0.000000000D+00      0    0          TIME SYSTEM CORR    
GAGP  0.0000000000D+00 0.000000000D+00      0    0          TIME SYSTEM CORR    
                                                            END OF HEADER       
E36 2025 06 15 13 10 00-0.409356958698D-03-0.537170308235D-11 0.000000000000D+00
     0.790000000000D+02 0.133687500000D+03 0.262868092368D-08 0.204556366884D+01
     0.616535544395D-05 0.191623461433D-03 0.484660267830D-05 0.544060552025D+04
     0.474000000000D+05-0.577419996262D-07 0.153976678396D+01-0.745058059692D-08
     0.999259807959D+00 0.253250000000D+03 0.579453765649D+00-0.543344061033D-08
     0.142863093678D-09 0.258000000000D+03 0.237100000000D+04 0.000000000000D+00
     0.312000000000D+01 0.000000000000D+00 0.442378222942D-08 0.000000000000D+00
     0.497200000000D+05 0.000000000000D+00 0.000000000000D+00 0.000000000000D+00
E36 2025 06 15 13 10 00-0.409355212469D-03-0.535749222763D-11 0.000000000000D+00
     0.790000000000D+02 0.133687500000D+03 0.262868092368D-08 0.204556366884D+01
     0.616535544395D-05 0.191623461433D-03 0.484660267830D-05 0.544060552025D+04
     0.474000000000D+05-0.577419996262D-07 0.153976678396D+01-0.745058059692D-08
     0.999259807959D+00 0.253250000000D+03 0.579453765649D+00-0.543344061033D-08
     0.142863093678D-09 0.516000000000D+03 0.237100000000D+04 0.000000000000D+00
     0.312000000000D+01 0.000000000000D+00 0.442378222942D-08 0.535510480404D-08
     0.480640000000D+05 0.000000000000D+00 0.000000000000D+00 0.000000000000D+00
E34 2025 06 15 14 30 00-0.187202647794D-03-0.228794760915D-11 0.000000000000D+00
     0.870000000000D+02 0.133500000000D+03 0.265618206922D-08 0.317656794103D+00
     0.626221299171D-05 0.282156746835D-03 0.475347042084D-05 0.544060643578D+04
     0.522000000000D+05-0.447034835815D-07 0.153785518452D+01-0.130385160446D-07
     0.999077932132D+00 0.256937500000D+03 0.211889838286D+01-0.543701218767D-08
     0.201794119821D-09 0.516000000000D+03 0.237100000000D+04 0.000000000000D+00
     0.312000000000D+01 0.000000000000D+00 0.279396772385D-08 0.395812094212D-08
     0.528640000000D+05 0.000000000000D+00 0.000000000000D+00 0.000000000000D+00
E15 2025 06 15 14 30 00-0.180284492671D-03-0.247268872045D-11 0.000000000000D+00
     0.870000000000D+02 0.126406250000D+03 0.266439669710D-08 0.158645663808D+01
     0.603497028351D-05 0.132723711431D-03 0.447034835815D-05 0.544060991669D+04
     0.522000000000D+05-0.465661287308D-07 0.153966281583D+01 0.763684511185D-07
     0.999212001259D+00 0.264281250000D+03 0.679744592948D-01-0.549808616021D-08
     0.213223167315D-09 0.516000000000D+03 0.237100000000D+04 0.000000000000D+00
     0.312000000000D+01 0.000000000000D+00 0.535510480404D-08 0.605359673500D-08
     0.528640000000D+05 0.000000000000D+00 0.000000000000D+00 0.000000000000D+00
E34 2025 06 15 14 30 00-0.187202647794D-03-0.228794760915D-11 0.000000000000D+00
     0.870000000000D+02 0.133500000000D+03 0.265618206922D-08 0.317656794103D+00
     0.626221299171D-05 0.282156746835D-03 0.475347042084D-05 0.544060643578D+04
     0.522000000000D+05-0.447034835815D-07 0.153785518452D+01-0.130385160446D-07
     0.999077932132D+00 0.256937500000D+03 0.211889838286D+01-0.543701218767D-08
     0.201794119821D-09 0.513000000000D+03 0.237100000000D+04 0.000000000000D+00
     0.312000000000D+01 0.000000000000D+00 0.279396772385D-08 0.395812094212D-08
     0.528850000000D+05 0.000000000000D+00 0.000000000000D+00 0.000000000000D+00
E15 2025 06 15 14 30 00-0.180284492671D-03-0.247268872045D-11 0.000000000000D+00
     0.870000000000D+02 0.126406250000D+03 0.266439669710D-08 0.158645663808D+01
     0.603497028351D-05 0.132723711431D-03 0.447034835815D-05 0.544060991669D+04
     0.522000000000D+05-0.465661287308D-07 0.153966281583D+01 0.763684511185D-07
     0.999212001259D+00 0.264281250000D+03 0.679744592948D-01-0.549808616021D-08
     0.213223167315D-09 0.513000000000D+03 0.237100000000D+04 0.000000000000D+00
     0.312000000000D+01 0.000000000000D+00 0.535510480404D-08 0.605359673500D-08
     0.528850000000D+05 0.000000000000D+00 0.000000000000D+00 0.000000000000D+00
E36 2025 06 15 14 30 00-0.409381696954D-03-0.540012479178D-11 0.000000000000D+00
     0.870000000000D+02 0.132718750000D+03 0.267725437553D-08 0.264185381634D+01
     0.613927841187D-05 0.192036852241D-03 0.501796603203D-05 0.544060463905D+04
     0.522000000000D+05-0.614672899246D-07 0.153974066356D+01-0.912696123123D-07
     0.999260128338D+00 0.248843750000D+03 0.578246752904D+00-0.548951437459D-08
     0.168935608275D-09 0.516000000000D+03 0.237100000000D+04 0.000000000000D+00
     0.312000000000D+01 0.000000000000D+00 0.442378222942D-08 0.535510480404D-08
     0.528940000000D+05 0.000000000000D+00 0.000000000000D+00 0.000000000000D+00
E15 2025 06 15 14 30 00-0.180285889655D-03-0.247268872045D-11 0.000000000000D+00
     0.870000000000D+02 0.126406250000D+03 0.266439669710D-08 0.158645663808D+01
     0.603497028351D-05 0.132723711431D-03 0.447034835815D-05 0.544060991669D+04
     0.522000000000D+05-0.465661287308D-07 0.153966281583D+01 0.763684511185D-07
     0.999212001259D+00 0.264281250000D+03 0.679744592948D-01-0.549808616021D-08
     0.213223167315D-09 0.258000000000D+03 0.237100000000D+04 0.000000000000D+00
     0.312000000000D+01 0.000000000000D+00 0.535510480404D-08 0.000000000000D+00
     0.529200000000D+05 0.000000000000D+00 0.000000000000D+00 0.000000000000D+00
E34 2025 06 15 14 30 00-0.187204626855D-03-0.228794760915D-11 0.000000000000D+00
     0.870000000000D+02 0.133500000000D+03 0.265618206922D-08 0.317656794103D+00
     0.626221299171D-05 0.282156746835D-03 0.475347042084D-05 0.544060643578D+04
     0.522000000000D+05-0.447034835815D-07 0.153785518452D+01-0.130385160446D-07
     0.999077932132D+00 0.256937500000D+03 0.211889838286D+01-0.543701218767D-08
     0.201794119821D-09 0.258000000000D+03 0.237100000000D+04 0.000000000000D+00
     0.312000000000D+01 0.000000000000D+00 0.279396772385D-08 0.000000000000D+00
     0.529200000000D+05 0.000000000000D+00 0.000000000000D+00 0.000000000000D+00
E 5 2025 06 15 14 30 00 0.486049614847D-02 0.309796632791D-11 0.000000000000D+00
     0.870000000000D+02-0.145593750000D+03 0.275868633893D-08 0.166474387840D+01
    -0.670552253723D-05 0.275326310657D-03 0.913254916668D-05 0.544062101555D+04
     0.522000000000D+05-0.949949026108D-07-0.265685347236D+01-0.800937414169D-07
     0.964950208221D+00 0.150156250000D+03-0.529924241243D+00-0.531700718898D-08
    -0.296440919383D-10 0.516000000000D+03 0.237100000000D+04 0.000000000000D+00
     0.312000000000D+01 0.000000000000D+00 0.232830643654D-08 0.302679836750D-08
     0.533740000000D+05 0.000000000000D+00 0.000000000000D+00 0.000000000000D+00
E 5 2025 06 15 14 30 00 0.486049614847D-02 0.309796632791D-11 0.000000000000D+00
     0.870000000000D+02-0.145593750000D+03 0.275868633893D-08 0.166474387840D+01
    -0.670552253723D-05 0.275326310657D-03 0.913254916668D-05 0.544062101555D+04
     0.522000000000D+05-0.949949026108D-07-0.265685347236D+01-0.800937414169D-07
     0.964950208221D+00 0.150156250000D+03-0.529924241243D+00-0.531700718898D-08
    -0.296440919383D-10 0.513000000000D+03 0.237100000000D+04 0.000000000000D+00
     0.312000000000D+01 0.000000000000D+00 0.232830643654D-08 0.302679836750D-08
     0.533950000000D+05 0.000000000000D+00 0.000000000000D+00 0.000000000000D+00
E 5 2025 06 15 14 30 00 0.486049463507D-02 0.308375547320D-11 0.000000000000D+00
     0.870000000000D+02-0.145593750000D+03 0.275868633893D-08 0.166474387840D+01
    -0.670552253723D-05 0.275326310657D-03 0.913254916668D-05 0.544062101555D+04
     0.522000000000D+05-0.949949026108D-07-0.265685347236D+01-0.800937414169D-07
     0.964950208221D+00 0.150156250000D+03-0.529924241243D+00-0.531700718898D-08
    -0.296440919383D-10 0.258000000000D+03 0.237100000000D+04 0.000000000000D+00
     0.312000000000D+01 0.000000000000D+00 0.232830643654D-08 0.000000000000D+00
     0.534200000000D+05 0.000000000000D+00 0.000000000000D+00 0.000000000000D+00
E 5 2025 06 15 14 40 00 0.486049806932D-02 0.309796632791D-11 0.000000000000D+00
     0.880000000000D+02-0.146531250000D+03 0.275868633893D-08 0.173849931303D+01
    -0.675581395626D-05 0.275155296549D-03 0.922754406929D-05 0.544062149620D+04
     0.528000000000D+05-0.782310962677D-07-0.265685655765D+01-0.968575477600D-07
     0.964950246257D+00 0.148437500000D+03-0.529294727113D+00-0.532165023952D-08
    -0.432160858377D-10 0.516000000000D+03 0.237100000000D+04 0.000000000000D+00
     0.312000000000D+01 0.000000000000D+00 0.232830643654D-08 0.302679836750D-08
     0.534640000000D+05 0.000000000000D+00 0.000000000000D+00 0.000000000000D+00
E34 2025 06 15 14 40 00-0.187203986570D-03-0.228794760915D-11 0.000000000000D+00
     0.880000000000D+02 0.133500000000D+03 0.266439669710D-08 0.393121344225D+00
     0.626035034657D-05 0.281972577795D-03 0.488758087158D-05 0.544060573196D+04
     0.528000000000D+05-0.428408384323D-07 0.153785191782D+01-0.130385160446D-07
     0.999078059406D+00 0.254031250000D+03 0.211781891170D+01-0.543558355673D-08
     0.201436962087D-09 0.516000000000D+03 0.237100000000D+04 0.000000000000D+00
     0.312000000000D+01 0.000000000000D+00 0.279396772385D-08 0.395812094212D-08
     0.534640000000D+05 0.000000000000D+00 0.000000000000D+00 0.000000000000D+00
